ONEWEB-0707             
1 61612U 24188U   26060.47839330 -.00000592  00000+0 -17316-2 0  9997
2 61612  87.8772  57.7017 0002460  88.0194 272.1215 13.10372797 69214
ONEWEB-0708             
1 61613U 24188V   26060.49666338  .00000039  00000+0  74866-4 0  9995
2 61613  87.8767  57.7260 0002073  71.5487 288.5865 13.10376707 69195
