OBJECT_NAME,OBJECT_ID,EPOCH,MEAN_MOTION,ECCENTRICITY,INCLINATION,RA_OF_ASC_NODE,ARG_OF_PERICENTER,MEAN_ANOMALY,EPHEMERIS_TYPE,CLASSIFICATION_TYPE,NORAD_CAT_ID,ELEMENT_SET_NO,REV_AT_EPOCH,BSTAR,MEAN_MOTION_DOT,MEAN_MOTION_DDOT
ONEWEB-0707,2024-188U,2026-03-01T11:28:53.181120,13.10372797,.000246,87.8772,57.7017,88.0194,272.1215,0,U,61612,999,6921,-.17316E-2,-.592E-5,0
ONEWEB-0708,2024-188V,2026-03-01T11:55:11.716032,13.10376707,.0002073,87.8767,57.7260,71.5487,288.5865,0,U,61613,999,6919,.74866E-4,.39E-6,0